{
  "type": "FeatureCollection",
  "features": [
    {
      "type": "Feature",
      "properties": {
        "norad_id": 66614,
        "name": "STARLINK-36040",
        "group": "last-30-days",
        "lat": 3.708953574133629,
        "lon": 31.15560275408221,
        "alt_km": 390.9981892838068,
        "timestamp": "2025-12-08T21:31:03.448218+00:00",
        "meta_object_name": "STARLINK-36040",
        "meta_object_id": "2025-270AC",
        "meta_epoch": "2025-12-08T14:00:01.999872",
        "meta_mean_motion": 15.5992986,
        "meta_eccentricity": 0.00013515,
        "meta_inclination": 42.9992,
        "meta_ra_of_asc_node": 217.0012,
        "meta_arg_of_pericenter": 254.1086,
        "meta_mean_anomaly": 320.1172,
        "meta_ephemeris_type": 0,
        "meta_classification_type": "U",
        "meta_norad_cat_id": 66614,
        "meta_element_set_no": 999,
        "meta_rev_at_epoch": 357,
        "meta_bstar": -0.027017395,
        "meta_mean_motion_dot": -0.01968972,
        "meta_mean_motion_ddot": 0,
        "tle_line1": "1 66614U 25270AC  25342.58335648 -.01968972  00000+0 -27017-1 0  9998",
        "tle_line2": "2 66614  42.9992 217.0012 0001351 254.1086 320.1172 15.59929860  3574"
      },
      "geometry": {
        "type": "Point",
        "coordinates": [
          31.15560275408221,
          3.708953574133629
        ]
      }
    },
    {
      "type": "Feature",
      "properties": {
        "norad_id": 66615,
        "name": "STARLINK-35988",
        "group": "last-30-days",
        "lat": 5.012825283166596,
        "lon": 29.74823140185153,
        "alt_km": 390.8057326879898,
        "timestamp": "2025-12-08T21:31:03.448228+00:00",
        "meta_object_name": "STARLINK-35988",
        "meta_object_id": "2025-270AD",
        "meta_epoch": "2025-12-08T14:00:01.999872",
        "meta_mean_motion": 15.59927711,
        "meta_eccentricity": 0.00014329,
        "meta_inclination": 42.9991,
        "meta_ra_of_asc_node": 217.0061,
        "meta_arg_of_pericenter": 252.2069,
        "meta_mean_anomaly": 320.1026,
        "meta_ephemeris_type": 0,
        "meta_classification_type": "U",
        "meta_norad_cat_id": 66615,
        "meta_element_set_no": 999,
        "meta_rev_at_epoch": 357,
        "meta_bstar": -0.026980793,
        "meta_mean_motion_dot": -0.01966544,
        "meta_mean_motion_ddot": 0,
        "tle_line1": "1 66615U 25270AD  25342.58335648 -.01966544  00000+0 -26981-1 0  9991",
        "tle_line2": "2 66615  42.9991 217.0061 0001432 252.2069 320.1026 15.59927711  3579"
      },
      "geometry": {
        "type": "Point",
        "coordinates": [
          29.74823140185153,
          5.012825283166596
        ]
      }
    },
    {
      "type": "Feature",
      "properties": {
        "norad_id": 66616,
        "name": "STARLINK-35391",
        "group": "last-30-days",
        "lat": 2.404690032419229,
        "lon": 32.55698845987306,
        "alt_km": 391.1359148174588,
        "timestamp": "2025-12-08T21:31:03.448238+00:00",
        "meta_object_name": "STARLINK-35391",
        "meta_object_id": "2025-270AE",
        "meta_epoch": "2025-12-08T14:00:01.999872",
        "meta_mean_motion": 15.59929766,
        "meta_eccentricity": 0.00014045,
        "meta_inclination": 42.9991,
        "meta_ra_of_asc_node": 216.9965,
        "meta_arg_of_pericenter": 254.3335,
        "meta_mean_anomaly": 321.8083,
        "meta_ephemeris_type": 0,
        "meta_classification_type": "U",
        "meta_norad_cat_id": 66616,
        "meta_element_set_no": 999,
        "meta_rev_at_epoch": 384,
        "meta_bstar": -0.026998447,
        "meta_mean_motion_dot": -0.01967791,
        "meta_mean_motion_ddot": 0,
        "tle_line1": "1 66616U 25270AE  25342.58335648 -.01967791  00000+0 -26998-1 0  9995",
        "tle_line2": "2 66616  42.9991 216.9965 0001404 254.3335 321.8083 15.59929766  3842"
      },
      "geometry": {
        "type": "Point",
        "coordinates": [
          32.55698845987306,
          2.404690032419229
        ]
      }
    },
    {
      "type": "Feature",
      "properties": {
        "norad_id": 66617,
        "name": "STARLINK-35940",
        "group": "last-30-days",
        "lat": 45.524683906896286,
        "lon": -23.92757899754432,
        "alt_km": 361.6445542338597,
        "timestamp": "2025-12-08T21:31:03.448249+00:00",
        "meta_object_name": "STARLINK-35940",
        "meta_object_id": "2025-271A",
        "meta_epoch": "2025-12-08T14:00:01.999872",
        "meta_mean_motion": 15.67995771,
        "meta_eccentricity": 0.00012016,
        "meta_inclination": 53.1595,
        "meta_ra_of_asc_node": 207.3941,
        "meta_arg_of_pericenter": 96.2789,
        "meta_mean_anomaly": 52.2964,
        "meta_ephemeris_type": 0,
        "meta_classification_type": "U",
        "meta_norad_cat_id": 66617,
        "meta_element_set_no": 999,
        "meta_rev_at_epoch": 357,
        "meta_bstar": -0.019350136,
        "meta_mean_motion_dot": -0.01933707,
        "meta_mean_motion_ddot": 0,
        "tle_line1": "1 66617U 25271A   25342.58335648 -.01933707  00000+0 -19350-1 0  9991",
        "tle_line2": "2 66617  53.1595 207.3941 0001201  96.2789  52.2964 15.67995771  3577"
      },
      "geometry": {
        "type": "Point",
        "coordinates": [
          -23.92757899754432,
          45.524683906896286
        ]
      }
    },
    {
      "type": "Feature",
      "properties": {
        "norad_id": 66618,
        "name": "STARLINK-35970",
        "group": "last-30-days",
        "lat": 7.762475091006536,
        "lon": 19.876619331795872,
        "alt_km": 367.95005945738467,
        "timestamp": "2025-12-08T21:31:03.448263+00:00",
        "meta_object_name": "STARLINK-35970",
        "meta_object_id": "2025-271B",
        "meta_epoch": "2025-12-08T14:00:01.999872",
        "meta_mean_motion": 15.67984511,
        "meta_eccentricity": 0.00011347,
        "meta_inclination": 53.1593,
        "meta_ra_of_asc_node": 207.2816,
        "meta_arg_of_pericenter": 116.3104,
        "meta_mean_anomaly": 85.595,
        "meta_ephemeris_type": 0,
        "meta_classification_type": "U",
        "meta_norad_cat_id": 66618,
        "meta_element_set_no": 999,
        "meta_rev_at_epoch": 357,
        "meta_bstar": -0.019226811,
        "meta_mean_motion_dot": -0.01921961,
        "meta_mean_motion_ddot": 0,
        "tle_line1": "1 66618U 25271B   25342.58335648 -.01921961  00000+0 -19227-1 0  9994",
        "tle_line2": "2 66618  53.1593 207.2816 0001134 116.3104  85.5950 15.67984511  3570"
      },
      "geometry": {
        "type": "Point",
        "coordinates": [
          19.876619331795872,
          7.762475091006536
        ]
      }
    },
    {
      "type": "Feature",
      "properties": {
        "norad_id": 66619,
        "name": "STARLINK-35951",
        "group": "last-30-days",
        "lat": 41.20868874536486,
        "lon": -15.199835671629373,
        "alt_km": 362.31007601679994,
        "timestamp": "2025-12-08T21:31:03.448273+00:00",
        "meta_object_name": "STARLINK-35951",
        "meta_object_id": "2025-271C",
        "meta_epoch": "2025-12-08T14:00:01.999872",
        "meta_mean_motion": 15.6798327,
        "meta_eccentricity": 0.00011634,
        "meta_inclination": 53.1591,
        "meta_ra_of_asc_node": 207.3772,
        "meta_arg_of_pericenter": 109.4159,
        "meta_mean_anomaly": 46.8338,
        "meta_ephemeris_type": 0,
        "meta_classification_type": "U",
        "meta_norad_cat_id": 66619,
        "meta_element_set_no": 999,
        "meta_rev_at_epoch": 357,
        "meta_bstar": -0.019198371,
        "meta_mean_motion_dot": -0.01919379,
        "meta_mean_motion_ddot": 0,
        "tle_line1": "1 66619U 25271C   25342.58335648 -.01919379  00000+0 -19198-1 0  9992",
        "tle_line2": "2 66619  53.1591 207.3772 0001163 109.4159  46.8338 15.67983270  3577"
      },
      "geometry": {
        "type": "Point",
        "coordinates": [
          -15.199835671629373,
          41.20868874536486
        ]
      }
    },
    {
      "type": "Feature",
      "properties": {
        "norad_id": 66620,
        "name": "STARLINK-35936",
        "group": "last-30-days",
        "lat": 44.51063113685364,
        "lon": -21.629316407425897,
        "alt_km": 361.88594190963886,
        "timestamp": "2025-12-08T21:31:03.448284+00:00",
        "meta_object_name": "STARLINK-35936",
        "meta_object_id": "2025-271D",
        "meta_epoch": "2025-12-08T14:00:01.999872",
        "meta_mean_motion": 15.67985501,
        "meta_eccentricity": 0.00010521,
        "meta_inclination": 53.1595,
        "meta_ra_of_asc_node": 207.3898,
        "meta_arg_of_pericenter": 101.0291,
        "meta_mean_anomaly": 49.4683,
        "meta_ephemeris_type": 0,
        "meta_classification_type": "U",
        "meta_norad_cat_id": 66620,
        "meta_element_set_no": 999,
        "meta_rev_at_epoch": 357,
        "meta_bstar": -0.019223436,
        "meta_mean_motion_dot": -0.01921674,
        "meta_mean_motion_ddot": 0,
        "tle_line1": "1 66620U 25271D   25342.58335648 -.01921674  00000+0 -19223-1 0  9994",
        "tle_line2": "2 66620  53.1595 207.3898 0001052 101.0291  49.4683 15.67985501  3575"
      },
      "geometry": {
        "type": "Point",
        "coordinates": [
          -21.629316407425897,
          44.51063113685364
        ]
      }
    }
  ]
}